[{"OBJECT_NAME":"STARLINK-30930","OBJECT_ID":"2023-178M","EPOCH":"2026-03-09T05:06:21.892032","MEAN_MOTION":15.30204033,"ECCENTRICITY":0.00013289,"INCLINATION":53.1624,"RA_OF_ASC_NODE":2.9127,"ARG_OF_PERICENTER":125.1056,"MEAN_ANOMALY":235.0069,"EPHEMERIS_TYPE":0,"CLASSIFICATION_TYPE":"U","NORAD_CAT_ID":58385,"ELEMENT_SET_NO":999,"REV_AT_EPOCH":12969,"BSTAR":9.8399339e-5,"MEAN_MOTION_DOT":2.556e-5,"MEAN_MOTION_DDOT":0},{"OBJECT_NAME":"JINJUSAT-1B","OBJECT_ID":"2025-052A","EPOCH":"2026-03-09T15:55:38.242848","MEAN_MOTION":15.30194857,"ECCENTRICITY":0.00055504,"INCLINATION":97.4113,"RA_OF_ASC_NODE":325.4613,"ARG_OF_PERICENTER":82.193,"MEAN_ANOMALY":277.9941,"EPHEMERIS_TYPE":0,"CLASSIFICATION_TYPE":"U","NORAD_CAT_ID":63210,"ELEMENT_SET_NO":999,"REV_AT_EPOCH":5486,"BSTAR":0.00068430401,"MEAN_MOTION_DOT":0.00019955,"MEAN_MOTION_DDOT":0}]
